TDRS 3                  
1 19548U 88091B   22350.36230097 -.00000284  00000+0  00000+0 0  9998
2 19548  13.5827 349.9109 0040044 329.5887 206.8066  1.00263503112567
HST                     
1 20580U 90037B   22350.45848568  .00003723  00000+0  20413-3 0  9991
2 20580  28.4713  42.1329 0002482 193.3895 186.5675 15.11417742594039
TDRS 5                  
1 21639U 91054B   22351.18996708  .00000100  00000+0  00000+0 0  9990
2 21639  14.2233   3.2231 0025559 348.9375 354.6702  1.00264269114894
TDRS 6                  
1 22314U 93003B   22350.47579734 -.00000280  00000+0  00000+0 0  9994
2 22314  14.1420   6.4931 0007645 144.3567  59.6751  1.00274337109551
TDRS 7                  
1 23613U 95035B   22351.00655858 -.00000186  00000+0  00000+0 0  9991
2 23613  13.9075 357.1941 0024002  51.4478 124.2020  1.00272758100339
ISS (ZARYA)             
1 25544U 98067A   22351.22633102  .00011865  00000+0  21552-3 0  9990
2 25544  51.6430 149.8407 0003644 168.2704 192.5333 15.50003640373574
LANDSAT 7               
1 25682U 99020A   22351.23550470  .00000408  00000+0  94502-4 0  9997
2 25682  97.9557  32.1881 0001044  83.9816 276.1509 14.59858887259238
TERRA                   
1 25994U 99068A   22350.86392858  .00000444  00000+0  10438-3 0  9992
2 25994  98.1188  58.5841 0000340 305.5850 186.0429 14.58941511223073
TDRS 8                  
1 26388U 00034A   22351.04822431 -.00000216  00000+0  00000+0 0  9999
2 26388  10.6554  41.2883 0018333 330.7868 180.3580  1.00270085 82355
TIMED                   
1 26998U 01055B   22350.81359774  .00001380  00000+0  15058-3 0  9994
2 26998  74.0725 276.2583 0000819 234.3300 125.7806 14.89010728140146
TDRS 9                  
1 27389U 02011A   22351.17225619 -.00000268  00000+0  00000+0 0  9994
2 27389   9.4086  59.1512 0026220 294.0798  92.3512  1.00269933 77629
AQUA                    
1 27424U 02022A   22351.11708427  .00000851  00000+0  19729-3 0  9992
2 27424  98.2681 291.4562 0001685  58.1872 357.9301 14.57517789 96833
TDRS 10                 
1 27566U 02055A   22350.80375270  .00000109  00000+0  00000+0 0  9990
2 27566   8.5369  48.9292 0005621 312.1713 202.5535  1.00275754 73413
SORCE                   
1 27651U 03004A   22351.09211872  .00002235  00000+0  23775-3 0  9999
2 27651  39.9954 277.3063 0023305 314.6685  45.2205 14.90516594 80343
AURA                    
1 28376U 04026A   22350.81431456  .00000867  00000+0  20262-3 0  9997
2 28376  98.2301 291.6860 0001381  88.7666 271.3691 14.57110051979781
SWIFT                   
1 28485U 04047A   22350.68521406  .00005597  00000+0  32607-3 0  9992
2 28485  20.5562 109.9642 0010663  90.8650 269.3007 15.07768301991075
THEMIS A                
1 30580U 07004A   22350.79340325 -.00000034  00000+0 -43587-1 0  9998
2 30580  12.6177 325.7411 8356666 203.8156  42.5505  0.87833314 30034
THEMIS D                
1 30797U 07004D   22350.86276448 -.00000020  00000+0  00000+0 0  9995
2 30797   8.5314 313.7857 8308548 219.1438  76.8009  0.87835669 29842
THEMIS E                
1 30798U 07004E   22351.06766072 -.00000030  00000+0  00000+0 0  9997
2 30798   9.6085 329.3151 8303058 205.5586 132.6692  0.87839096 54670
AIM                     
1 31304U 07015A   22350.78235235  .00013299  00000+0  59829-3 0  9990
2 31304  97.8603 277.1971 0006164  97.3448 262.8487 15.21225945858871
FGRST (GLAST)           
1 33053U 08029A   22350.72979579  .00002690  00000+0  13237-3 0  9995
2 33053  25.5845   3.7530 0012170 132.1995 227.9575 15.12793458801320
WISE                    
1 36119U 09071A   22350.82237497  .00009565  00000+0  27331-3 0  9994
2 36119  97.2206  21.6908 0003156  45.4038 314.7464 15.36198821723479
TDRS 11                 
1 39070U 13004A   22351.12835601  .00000102  00000+0  00000+0 0  9997
2 39070   2.7923 351.7112 0003571  52.9644 272.9153  1.00275465 36176
TDRS 12                 
1 39504U 14004A   22351.09823740 -.00000249  00000+0  00000+0 0  9990
2 39504   3.7218 350.7669 0002062 241.0629 208.3232  1.00267900 32633
GPM-CORE                
1 39574U 14009C   22351.10486622  .00024454  00000+0  35136-3 0  9993
2 39574  64.9994 286.5988 0009031 279.1942  80.8182 15.56019847500035
MMS 1                   
1 40482U 15011A   22349.25407664 -.00000285  00000+0  00000+0 0  9994
2 40482  29.8039  90.1248 8898932  69.3316 258.0155  0.28534878 13814
MMS 2                   
1 40483U 15011B   22349.64710406 -.00000250  00000+0  00000+0 0  9991
2 40483  29.7915  90.0957 8899230  69.3588 298.3795  0.28536129 13870
MMS 3                   
1 40484U 15011C   22349.64710406 -.00000250  00000+0  00000+0 0  9992
2 40484  29.8003  90.1016 8899292  69.3494 298.4102  0.28528010 13559
MMS 4                   
1 40485U 15011D   22349.64710406 -.00000250  00000+0  00000+0 0  9993
2 40485  29.7939  90.0906 8900452  69.3636 298.3802  0.28536133 13767
TDRS 13                 
1 42915U 17047A   22350.80211973 -.00000079  00000+0  00000+0 0  9998
2 42915   4.2308 335.3984 0013008 116.0038 271.2934  1.00270904 19535
JPSS-1                  
1 43013U 17073A   22351.05997098  .00000090  00000+0  63458-4 0  9997
2 43013  98.7355 286.8848 0000608 107.5615 252.5627 14.19536340263133
